CZ-3B R/B               
1 66587U 25269B   25339.88612404  .00055981 -82846-6  17517-2 0  9997
2 66587  51.3669 171.2323 7520061 227.4915  38.5744  2.02575003   313
STARLINK-36076          
1 66588U 25270A   25340.91668981 -.01995253  00000+0 -20574-1 0  9995
2 66588  42.9990 227.0730 0001026 263.3011 226.6327 15.67142560  3462
STARLINK-35447          
1 66589U 25270B   25340.91668981 -.02009524  00000+0 -20728-1 0  9995
2 66589  42.9987 227.0628 0001264 266.3442 227.4166 15.67155778  3577
STARLINK-35429          
1 66590U 25270C   25340.91668981 -.02006636  00000+0 -20696-1 0  9992
2 66590  42.9989 227.0675 0001247 267.5201 224.3258 15.67153528  3579
STARLINK-36058          
1 66591U 25270D   25340.91668981 -.02008998  00000+0 -20723-1 0  9997
2 66591  42.9987 227.0581 0001288 266.9111 228.7681 15.67154595  3463
STARLINK-36066          
1 66592U 25270E   25340.91668981 -.02006331  00000+0 -20693-1 0  9993
2 66592  42.9989 227.0534 0001234 265.3912 232.2039 15.67153903  3365
STARLINK-36031          
1 66593U 25270F   25340.91668981 -.02011992  00000+0 -20757-1 0  9994
2 66593  42.9989 227.0485 0001302 266.3250 233.1861 15.67156290  3469
STARLINK-36032          
1 66594U 25270G   25340.91668981 -.02005328  00000+0 -20682-1 0  9998
2 66594  42.9991 227.0440 0001228 265.9737 235.4566 15.67152844  3206
STARLINK-35711          
1 66595U 25270H   25340.91668981 -.02011569  00000+0 -20753-1 0  9992
2 66595  42.9989 227.0385 0001280 266.8928 236.4540 15.67155256  3575
STARLINK-35811          
1 66596U 25270J   25340.91668981 -.02006189  00000+0 -20691-1 0  9996
2 66596  42.9988 227.0341 0001229 266.9444 238.3193 15.67153723  3576
STARLINK-35820          
1 66597U 25270K   25340.91668981 -.02004811  00000+0 -20676-1 0  9990
2 66597  42.9987 227.0290 0001271 265.3268 241.8555 15.67151848  3570
STARLINK-35981          
1 66598U 25270L   25340.91668981 -.02009577  00000+0 -20730-1 0  9996
2 66598  42.9988 227.0239 0001278 263.4960 245.6008 15.67154713  3300
