CCSDS_OMM_VERS = 2.0
CREATION_DATE  = 
ORIGINATOR     = 

OBJECT_NAME    = CZ-3B R/B
OBJECT_ID      = 2025-269B
CENTER_NAME    = EARTH
REF_FRAME      = TEME
TIME_SYSTEM    = UTC
MEAN_ELEMENT_THEORY = SGP/SGP4

EPOCH          = 2025-12-05T21:16:01.117056
MEAN_MOTION    = 2.02575003
ECCENTRICITY   = .75200619
INCLINATION    = 51.3669
RA_OF_ASC_NODE = 171.2323
ARG_OF_PERICENTER = 227.4915
MEAN_ANOMALY   = 38.5744

EPHEMERIS_TYPE = 0
CLASSIFICATION_TYPE = U
NORAD_CAT_ID   = 66587
ELEMENT_SET_NO = 999
REV_AT_EPOCH   = 31
BSTAR          = .17517289E-2
MEAN_MOTION_DOT = .55981E-3
MEAN_MOTION_DDOT = -.828456E-6

CCSDS_OMM_VERS = 2.0
CREATION_DATE  = 
ORIGINATOR     = 

OBJECT_NAME    = STARLINK-36076
OBJECT_ID      = 2025-270A
CENTER_NAME    = EARTH
REF_FRAME      = TEME
TIME_SYSTEM    = UTC
MEAN_ELEMENT_THEORY = SGP/SGP4

EPOCH          = 2025-12-06T22:00:01.999584
MEAN_MOTION    = 15.67142560
ECCENTRICITY   = .00010268
INCLINATION    = 42.9990
RA_OF_ASC_NODE = 227.0730
ARG_OF_PERICENTER = 263.3011
MEAN_ANOMALY   = 226.6327

EPHEMERIS_TYPE = 0
CLASSIFICATION_TYPE = U
NORAD_CAT_ID   = 66588
ELEMENT_SET_NO = 999
REV_AT_EPOCH   = 346
BSTAR          = -.20574179E-1
MEAN_MOTION_DOT = -.1995253E-1
MEAN_MOTION_DDOT = 0

CCSDS_OMM_VERS = 2.0
CREATION_DATE  = 
ORIGINATOR     = 

OBJECT_NAME    = STARLINK-35447
OBJECT_ID      = 2025-270B
CENTER_NAME    = EARTH
REF_FRAME      = TEME
TIME_SYSTEM    = UTC
MEAN_ELEMENT_THEORY = SGP/SGP4

EPOCH          = 2025-12-06T22:00:01.999584
MEAN_MOTION    = 15.67155778
ECCENTRICITY   = .00012646
INCLINATION    = 42.9987
RA_OF_ASC_NODE = 227.0628
ARG_OF_PERICENTER = 266.3442
MEAN_ANOMALY   = 227.4166

EPHEMERIS_TYPE = 0
CLASSIFICATION_TYPE = U
NORAD_CAT_ID   = 66589
ELEMENT_SET_NO = 999
REV_AT_EPOCH   = 357
BSTAR          = -.20728332E-1
MEAN_MOTION_DOT = -.2009524E-1
MEAN_MOTION_DDOT = 0

CCSDS_OMM_VERS = 2.0
CREATION_DATE  = 
ORIGINATOR     = 

OBJECT_NAME    = STARLINK-35429
OBJECT_ID      = 2025-270C
CENTER_NAME    = EARTH
REF_FRAME      = TEME
TIME_SYSTEM    = UTC
MEAN_ELEMENT_THEORY = SGP/SGP4

EPOCH          = 2025-12-06T22:00:01.999584
MEAN_MOTION    = 15.67153528
ECCENTRICITY   = .00012475
INCLINATION    = 42.9989
RA_OF_ASC_NODE = 227.0675
ARG_OF_PERICENTER = 267.5201
MEAN_ANOMALY   = 224.3258

EPHEMERIS_TYPE = 0
CLASSIFICATION_TYPE = U
NORAD_CAT_ID   = 66590
ELEMENT_SET_NO = 999
REV_AT_EPOCH   = 357
BSTAR          = -.20696492E-1
MEAN_MOTION_DOT = -.2006636E-1
MEAN_MOTION_DDOT = 0

CCSDS_OMM_VERS = 2.0
CREATION_DATE  = 
ORIGINATOR     = 

OBJECT_NAME    = STARLINK-36058
OBJECT_ID      = 2025-270D
CENTER_NAME    = EARTH
REF_FRAME      = TEME
TIME_SYSTEM    = UTC
MEAN_ELEMENT_THEORY = SGP/SGP4

EPOCH          = 2025-12-06T22:00:01.999584
MEAN_MOTION    = 15.67154595
ECCENTRICITY   = .00012887
INCLINATION    = 42.9987
RA_OF_ASC_NODE = 227.0581
ARG_OF_PERICENTER = 266.9111
MEAN_ANOMALY   = 228.7681

EPHEMERIS_TYPE = 0
CLASSIFICATION_TYPE = U
NORAD_CAT_ID   = 66591
ELEMENT_SET_NO = 999
REV_AT_EPOCH   = 346
BSTAR          = -.20722936E-1
MEAN_MOTION_DOT = -.2008998E-1
MEAN_MOTION_DDOT = 0

CCSDS_OMM_VERS = 2.0
CREATION_DATE  = 
ORIGINATOR     = 

OBJECT_NAME    = STARLINK-36066
OBJECT_ID      = 2025-270E
CENTER_NAME    = EARTH
REF_FRAME      = TEME
TIME_SYSTEM    = UTC
MEAN_ELEMENT_THEORY = SGP/SGP4

EPOCH          = 2025-12-06T22:00:01.999584
MEAN_MOTION    = 15.67153903
ECCENTRICITY   = .00012348
INCLINATION    = 42.9989
RA_OF_ASC_NODE = 227.0534
ARG_OF_PERICENTER = 265.3912
MEAN_ANOMALY   = 232.2039

EPHEMERIS_TYPE = 0
CLASSIFICATION_TYPE = U
NORAD_CAT_ID   = 66592
ELEMENT_SET_NO = 999
REV_AT_EPOCH   = 336
BSTAR          = -.20692701E-1
MEAN_MOTION_DOT = -.2006331E-1
MEAN_MOTION_DDOT = 0

CCSDS_OMM_VERS = 2.0
CREATION_DATE  = 
ORIGINATOR     = 

OBJECT_NAME    = STARLINK-36031
OBJECT_ID      = 2025-270F
CENTER_NAME    = EARTH
REF_FRAME      = TEME
TIME_SYSTEM    = UTC
MEAN_ELEMENT_THEORY = SGP/SGP4

EPOCH          = 2025-12-06T22:00:01.999584
MEAN_MOTION    = 15.67156290
ECCENTRICITY   = .00013028
INCLINATION    = 42.9989
RA_OF_ASC_NODE = 227.0485
ARG_OF_PERICENTER = 266.3250
MEAN_ANOMALY   = 233.1861

EPHEMERIS_TYPE = 0
CLASSIFICATION_TYPE = U
NORAD_CAT_ID   = 66593
ELEMENT_SET_NO = 999
REV_AT_EPOCH   = 346
BSTAR          = -.20756533E-1
MEAN_MOTION_DOT = -.2011992E-1
MEAN_MOTION_DDOT = 0

CCSDS_OMM_VERS = 2.0
CREATION_DATE  = 
ORIGINATOR     = 

OBJECT_NAME    = STARLINK-36032
OBJECT_ID      = 2025-270G
CENTER_NAME    = EARTH
REF_FRAME      = TEME
TIME_SYSTEM    = UTC
MEAN_ELEMENT_THEORY = SGP/SGP4

EPOCH          = 2025-12-06T22:00:01.999584
MEAN_MOTION    = 15.67152844
ECCENTRICITY   = .00012289
INCLINATION    = 42.9991
RA_OF_ASC_NODE = 227.0440
ARG_OF_PERICENTER = 265.9737
MEAN_ANOMALY   = 235.4566

EPHEMERIS_TYPE = 0
CLASSIFICATION_TYPE = U
NORAD_CAT_ID   = 66594
ELEMENT_SET_NO = 999
REV_AT_EPOCH   = 320
BSTAR          = -.20681878E-1
MEAN_MOTION_DOT = -.2005328E-1
MEAN_MOTION_DDOT = 0

CCSDS_OMM_VERS = 2.0
CREATION_DATE  = 
ORIGINATOR     = 

OBJECT_NAME    = STARLINK-35711
OBJECT_ID      = 2025-270H
CENTER_NAME    = EARTH
REF_FRAME      = TEME
TIME_SYSTEM    = UTC
MEAN_ELEMENT_THEORY = SGP/SGP4

EPOCH          = 2025-12-06T22:00:01.999584
MEAN_MOTION    = 15.67155256
ECCENTRICITY   = .00012804
INCLINATION    = 42.9989
RA_OF_ASC_NODE = 227.0385
ARG_OF_PERICENTER = 266.8928
MEAN_ANOMALY   = 236.4540

EPHEMERIS_TYPE = 0
CLASSIFICATION_TYPE = U
NORAD_CAT_ID   = 66595
ELEMENT_SET_NO = 999
REV_AT_EPOCH   = 357
BSTAR          = -.20752659E-1
MEAN_MOTION_DOT = -.2011569E-1
MEAN_MOTION_DDOT = 0

CCSDS_OMM_VERS = 2.0
CREATION_DATE  = 
ORIGINATOR     = 

OBJECT_NAME    = STARLINK-35811
OBJECT_ID      = 2025-270J
CENTER_NAME    = EARTH
REF_FRAME      = TEME
TIME_SYSTEM    = UTC
MEAN_ELEMENT_THEORY = SGP/SGP4

EPOCH          = 2025-12-06T22:00:01.999584
MEAN_MOTION    = 15.67153723
ECCENTRICITY   = .00012294
INCLINATION    = 42.9988
RA_OF_ASC_NODE = 227.0341
ARG_OF_PERICENTER = 266.9444
MEAN_ANOMALY   = 238.3193

EPHEMERIS_TYPE = 0
CLASSIFICATION_TYPE = U
NORAD_CAT_ID   = 66596
ELEMENT_SET_NO = 999
REV_AT_EPOCH   = 357
BSTAR          = -.20691234E-1
MEAN_MOTION_DOT = -.2006189E-1
MEAN_MOTION_DDOT = 0

CCSDS_OMM_VERS = 2.0
CREATION_DATE  = 
ORIGINATOR     = 

OBJECT_NAME    = STARLINK-35820
OBJECT_ID      = 2025-270K
CENTER_NAME    = EARTH
REF_FRAME      = TEME
TIME_SYSTEM    = UTC
MEAN_ELEMENT_THEORY = SGP/SGP4

EPOCH          = 2025-12-06T22:00:01.999584
MEAN_MOTION    = 15.67151848
ECCENTRICITY   = .00012718
INCLINATION    = 42.9987
RA_OF_ASC_NODE = 227.0290
ARG_OF_PERICENTER = 265.3268
MEAN_ANOMALY   = 241.8555

EPHEMERIS_TYPE = 0
CLASSIFICATION_TYPE = U
NORAD_CAT_ID   = 66597
ELEMENT_SET_NO = 999
REV_AT_EPOCH   = 357
BSTAR          = -.20676261E-1
MEAN_MOTION_DOT = -.2004811E-1
MEAN_MOTION_DDOT = 0

CCSDS_OMM_VERS = 2.0
CREATION_DATE  = 
ORIGINATOR     = 

OBJECT_NAME    = STARLINK-35981
OBJECT_ID      = 2025-270L
CENTER_NAME    = EARTH
REF_FRAME      = TEME
TIME_SYSTEM    = UTC
MEAN_ELEMENT_THEORY = SGP/SGP4

EPOCH          = 2025-12-06T22:00:01.999584
MEAN_MOTION    = 15.67154713
ECCENTRICITY   = .00012783
INCLINATION    = 42.9988
RA_OF_ASC_NODE = 227.0239
ARG_OF_PERICENTER = 263.4960
MEAN_ANOMALY   = 245.6008

EPHEMERIS_TYPE = 0
CLASSIFICATION_TYPE = U
NORAD_CAT_ID   = 66598
ELEMENT_SET_NO = 999
REV_AT_EPOCH   = 330
BSTAR          = -.20729732E-1
MEAN_MOTION_DOT = -.2009577E-1
MEAN_MOTION_DDOT = 0

